[{"OBJECT_NAME":"UTMN 2 (RS27S)","OBJECT_ID":"2023-091AP","EPOCH":"2026-03-09T23:09:07.917408","MEAN_MOTION":15.29495965,"ECCENTRICITY":0.00097379,"INCLINATION":97.5194,"RA_OF_ASC_NODE":134.949,"ARG_OF_PERICENTER":76.0788,"MEAN_ANOMALY":284.1534,"EPHEMERIS_TYPE":0,"CLASSIFICATION_TYPE":"U","NORAD_CAT_ID":57203,"ELEMENT_SET_NO":999,"REV_AT_EPOCH":14936,"BSTAR":0.00056135701,"MEAN_MOTION_DOT":0.00016013,"MEAN_MOTION_DDOT":0},{"OBJECT_NAME":"STARLINK-35990","OBJECT_ID":"2025-278B","EPOCH":"2026-03-09T12:08:00.109248","MEAN_MOTION":15.27586169,"ECCENTRICITY":9.933e-5,"INCLINATION":42.9974,"RA_OF_ASC_NODE":115.1677,"ARG_OF_PERICENTER":201.3802,"MEAN_ANOMALY":158.7008,"EPHEMERIS_TYPE":0,"CLASSIFICATION_TYPE":"U","NORAD_CAT_ID":66792,"ELEMENT_SET_NO":999,"REV_AT_EPOCH":1518,"BSTAR":0.00085070919,"MEAN_MOTION_DOT":0.00023226,"MEAN_MOTION_DDOT":0}]
